STARLINK-11295 [DTC]    
1 61536U 24184E   24298.25001157 -.00696696  00000+0 -23688-2 0  9998
2 61536  53.1622 194.2369 0000405  96.4977  66.6748 15.90644627  2493
STARLINK-11331 [DTC]    
1 61537U 24184F   24298.25001157 -.00719051  00000+0 -24391-2 0  9992
2 61537  53.1621 194.2297 0000368  84.9259  81.6322 15.90738802  2658
STARLINK-11325 [DTC]    
1 61538U 24184G   24298.16667824 -.00738966  17566-3 -22955-2 0  9991
2 61538  53.1623 194.6496 0000328  91.8845 319.1018 15.90883225  2538
STARLINK-11332 [DTC]    
1 61539U 24184H   24298.25001157 -.00791743  19861-3 -24685-2 0  9997
2 61539  53.1620 194.2227 0000372  83.7816  86.1980 15.90823133  2497
STARLINK-11350 [DTC]    
1 61540U 24184J   24298.25001157 -.00797554  20131-3 -24816-2 0  9993
2 61540  53.1619 194.2187 0000350  86.9295  84.9764 15.90863780  2650
STARLINK-11357 [DTC]    
1 61541U 24184K   24298.25001157 -.00802232  20353-3 -24903-2 0  9997
2 61541  53.1619 194.2156 0000569  55.8891 117.4397 15.90910402  2496
STARLINK-11322 [DTC]    
1 61542U 24184L   24297.91668981 -.00826406  21586-3 -24916-2 0  9996
2 61542  53.1624 195.9066 0000473 103.3186 321.4376 15.91482221  2444
STARLINK-11364 [DTC]    
1 61543U 24184M   24297.91668981 -.00839667  22224-3 -25252-2 0  9994
2 61543  53.1623 195.9030 0000513 108.2587 318.1884 15.91533798  2600
STARLINK-11349 [DTC]    
1 61544U 24184N   24297.91668981 -.00847857  22626-3 -25436-2 0  9995
2 61544  53.1623 195.8996 0000562 110.6586 317.4038 15.91582774  2602
STARLINK-32406          
1 61545U 24184P   24298.25001157 -.00988684  00000+0 -39425-2 0  9995
2 61545  53.1610 194.2532 0000579  67.4606  87.0218 15.88169339  2602
STARLINK-32445          
1 61546U 24184Q   24298.25001157 -.00977890  00000+0 -39153-2 0  9991
2 61546  53.1610 194.2608 0000670  62.0275  88.8232 15.88062666  2657
STARLINK-32411          
1 61547U 24184R   24298.25001157 -.00982777  00000+0 -39257-2 0  9997
2 61547  53.1610 194.2567 0000782  66.6909  86.2751 15.88119422  2606
STARLINK-32424          
1 61548U 24184S   24298.25001157 -.00994790  00000+0 -39579-2 0  9993
2 61548  53.1610 194.2490 0000771  61.6141  94.9611 15.88226649  2604
STARLINK-32389          
1 61549U 24184T   24297.91668981 -.01031335  00000+0 -39471-2 0  9999
2 61549  53.1616 195.9300 0000718  98.7473 314.2793 15.89079078  2555
STARLINK-32476          
1 61550U 24184U   24297.91668981 -.01034888  00000+0 -39501-2 0  9991
2 61550  53.1618 195.9261 0000664  94.3050 320.7416 15.89140533  2603
STARLINK-32366          
1 61551U 24184V   24297.91668981 -.01028438  00000+0 -39454-2 0  9993
2 61551  53.1619 195.9335 0000667 106.9673 304.4374 15.89026018  2558
GAOFEN-12 05            
1 61571U 24186A   24298.19930078  .00001300  00000+0  17774-3 0  9995
2 61571  97.9152 303.4247 0000944  96.3360 263.7960 14.80234728  1229
CZ-4C R/B               
1 61572U 24186B   24297.95724055  .00007029  00000+0  51307-3 0  9999
2 61572  97.9001 303.4108 0051200  21.2238 339.1094 15.02949529  1190
2024-189A               
1 61614U 24189A   24297.58556091  .00011985  00000+0  94145-3 0  9994
2 61614  97.6385 322.4865 0007999 262.4529  97.5986 15.01018127   237
2024-189B               
1 61615U 24189B   24297.58542292  .00028968  00000+0  22539-2 0  9999
2 61615  97.6379 322.4864 0008763 263.6571  96.3929 15.01177259   203
2024-189C               
1 61616U 24189C   24297.58462597 -.00000059  00000+0  00000+0 0  9997
2 61616  97.6372 322.4827 0008279 310.4354  49.0536 15.00753311   205
2024-190A               
1 61617U 24190A   24297.57832076  .00138902  00000+0  56723-2 0  9996
2 61617  34.9951  21.6539 0006364 288.7594 207.5934 15.22907433    86
2024-190B               
1 61618U 24190B   24297.64009833  .00073518  00000+0  29989-2 0  9997
2 61618  34.9912  21.2533 0008583 282.6827 193.6474 15.23237425    94
2024-190C               
1 61619U 24190C   24297.63952919  .00002391  00000+0  10000-3 0  9995
2 61619  34.9996  21.2521 0008130 283.7972 189.4511 15.23233143    59
2024-190D               
1 61620U 24190D   24297.66668110  .00429400  55286-4  10701-2 0  9999
2 61620  35.0066  20.8379 0198914  30.3702 330.8390 15.69021109    36
NOAA 1                  
1 04793U 70106A   24297.78398354 -.00000042  00000+0  74115-5 0  9997
2 04793 101.4300 345.4431 0031883  85.7543  25.6181 12.54034534465305
NOAA 2 (ITOS-D)         
1 06235U 72082A   24297.85056700 -.00000025  00000+0  13858-3 0  9995
2 06235 102.0229 298.3360 0003797 235.7059 191.0718 12.53188710379622
NOAA 3                  
1 06920U 73086A   24297.92940552 -.00000031  00000+0  11354-3 0  9992
2 06920 102.2857 295.0749 0006436 147.4472 285.9985 12.40373381307354
NOAA 4                  
1 07529U 74089A   24297.97537421 -.00000025  00000+0  13600-3 0  9993
2 07529 101.9982 293.4659 0008727 263.6539 110.2265 12.53186262284211
NOAA 5                  
1 09057U 76077A   24298.17642352 -.00000014  00000+0  24354-3 0  9999
2 09057 102.2271 271.4524 0010022   0.8311  10.0807 12.37807599180333
TIROS N                 
1 11060U 78096A   24297.83203846  .00000397  00000+0  21051-3 0  9996
2 11060  98.5190 333.3509 0010526 178.1515 181.9702 14.18976297593458
NOAA 6                  
1 11416U 79057A   24298.06826355  .00000685  00000+0  25702-3 0  9998
2 11416  98.6223 319.1208 0009028 235.6917 124.3414 14.34794212364943
NOAA 7                  
1 12553U 81059A   24297.93571783  .00000163  00000+0  10224-3 0  9997
2 12553  98.8785 357.2880 0011446 182.2631 177.8493 14.17604201239554
NOAA 8                  
1 13923U 83022A   24297.94909282  .00000428  00000+0  18527-3 0  9999
2 13923  98.7364 298.1963 0014177 213.4561 146.5726 14.29411781165165
NOAA 9                  
1 15427U 84123A   24297.99763745  .00000366  00000+0  20623-3 0  9991
2 15427  99.1250 298.6472 0013727 251.0138 168.7380 14.16736727 58522
NOAA 10                 
1 16969U 86073A   24297.85865205  .00000461  00000+0  20042-3 0  9999
2 16969  98.6553 282.6779 0011427 320.4731 100.9393 14.28782364983522
NOAA 11                 
1 19531U 88089A   24297.85883440  .00000241  00000+0  14422-3 0  9998
2 19531  98.5371 254.8562 0010240 220.9297 139.1109 14.15625111862393
NOAA 12                 
1 21263U 91032A   24297.92756388  .00000352  00000+0  16403-3 0  9997
2 21263  98.5703 286.2207 0013491 350.5186   9.5738 14.26437963739232
NOAA 13                 
1 22739U 93050A   24297.85489541  .00000384  00000+0  22698-3 0  9992
2 22739  98.6237 250.5704 0010440  49.9507 310.2581 14.13346228608420
NOAA 14                 
1 23455U 94089A   24297.90783009  .00000206  00000+0  12893-3 0  9992
2 23455  98.4437 286.8464 0009849  19.2301 340.9243 14.14473659538195
NOAA 15                 
1 25338U 98030A   24298.14107472  .00000424  00000+0  19297-3 0  9992
2 25338  98.5596 322.5343 0009358 312.0699  47.9685 14.26760185375826
NOAA 16                 
1 26536U 00055A   24297.90254197  .00000212  00000+0  13413-3 0  9992
2 26536  98.5182 331.5419 0009663 222.2412 137.8018 14.13676105538763
NOAA 17                 
1 27453U 02032A   24297.92357912  .00000531  00000+0  24230-3 0  9992
2 27453  98.7793 248.5403 0010708 298.7307  61.2796 14.25764561161295
NOAA 18                 
1 28654U 05018A   24298.19831998  .00000463  00000+0  26967-3 0  9997
2 28654  98.8650  14.0423 0014960  60.2706 299.9953 14.13383411  1486
NOAA 19                 
1 33591U 09005A   24298.16833206  .00000420  00000+0  24877-3 0  9995
2 33591  99.0318 355.2450 0012818 289.6534  70.3254 14.13166201809849
SUOMI NPP               
1 37849U 11061A   24298.16995072  .00000306  00000+0  16584-3 0  9999
2 37849  98.7322 234.2546 0000612 137.6450 222.4774 14.19537908673163
NOAA 20 (JPSS-1)        
1 43013U 17073A   24298.18709318  .00000287  00000+0  15693-3 0  9994
2 43013  98.7164 233.9859 0001296 146.5405 213.5854 14.19544442359205
NOAA 21 (JPSS-2)        
1 54234U 22150A   24298.15347953  .00000357  00000+0  19002-3 0  9999
2 54234  98.7619 234.5770 0002040 102.0402 258.1002 14.19545526101274
ISS (ZARYA)             
1 25544U 98067A   24298.44436653  .00092212  00000+0  15850-2 0  9996
2 25544  51.6393  35.1562 0008960 100.4786 357.9022 15.50314473478594
CSS (TIANHE)            
1 48274U 21035A   24296.61171914  .00062587  00000+0  60427-3 0  9998
2 48274  41.4685  25.6223 0004590 253.6432 106.3904 15.65534502199039
ISS (NAUKA)             
1 49044U 21066A   24297.78217318  .00025503  00000+0  44852-3 0  9997
2 49044  51.6393  38.4397 0009084  98.1514 262.0506 15.50270026478450
FREGAT DEB              
1 49271U 11037PF  24297.27450434  .00017562  00000+0  44451-1 0  9997
2 49271  51.6260 338.5107 0901109  38.3699 327.7871 12.21808704150835
CSS (WENTIAN)           
1 53239U 22085A   24296.61171914  .00062587  00000+0  60427-3 0  9991
2 53239  41.4685  25.6223 0004590 253.6432 106.3904 15.65534502124393
CSS (MENGTIAN)          
1 54216U 22143A   24296.61171914  .00062587  00000+0  60427-3 0  9992
2 54216  41.4685  25.6223 0004590 253.6432 106.3904 15.65534502112891
TIANZHOU-7              
1 58811U 24013A   24296.61171914  .00062587  00000+0  60427-3 0  9995
2 58811  41.4685  25.6223 0004590 253.6432 106.3904 15.65534502474886
CREW DRAGON 8           
1 59097U 24042A   24297.52432310  .00023682  00000+0  41739-3 0  9993
2 59097  51.6392  39.7175 0009105  97.5589 262.6435 15.50253589 36200
1998-067WL              
1 59561U 98067WL  24297.93974130  .00172570  00000+0  94212-3 0  9998
2 59561  51.6258  22.1571 0005924 356.5537   3.5422 15.78824269 29455
SHENZHOU-18 (SZ-18)     
1 59591U 24078A   24296.61171914  .00062587  00000+0  60427-3 0  9992
2 59591  41.4685  25.6223 0004590 253.6432 106.3904 15.65534502 28078
